HAWK-A                  
1 43765U 18099H   26200.10982917  .00003635  00000+0  14614-3 0  9994
2 43765  97.3891 251.9337 0035124 170.2748 189.9178 15.24994021417965
HAWK-B                  
1 43794U 18099AN  26200.10405368  .00003211  00000+0  13721-3 0  9994
2 43794  97.3942 251.2753 0031772 188.2158 171.8563 15.23140761417891
HAWK-C                  
1 43799U 18099AT  26200.14434448  .00004445  00000+0  15903-3 0  9998
2 43799  97.3867 253.0391 0040710 169.9471 190.2593 15.28527018418793
HAWK-2C                 
1 47502U 21006CT  26200.09793847  .00003515  00000+0  10567-3 0  9999
2 47502  97.2259 243.7759 0008677  89.8938 270.3300 15.35017206304398
HAWK-2A                 
1 47505U 21006CW  26200.10010843  .00003637  00000+0  10919-3 0  9998
2 47505  97.2301 244.4744 0008233  93.1893 267.0293 15.35038326304397
HAWK-2B                 
1 47508U 21006CZ  26200.09330657  .00004022  00000+0  11999-3 0  9995
2 47508  97.2171 242.7494 0008761  91.5884 268.6363 15.35168289304393
HAWK-3B                 
1 48931U 21059BE  26200.11056449  .00028486  00000+0  21799-3 0  9990
2 48931  97.6637  39.9003 0004756 185.2978 174.8235 15.72105827282865
HAWK-3C                 
1 48948U 21059BX  26200.11024720  .00030026  00000+0  22968-3 0  9997
2 48948  97.6752  45.6403 0005113 184.3804 175.7415 15.72102968282868
HAWK-3A                 
1 48957U 21059CG  26200.11013569  .00029478  00000+0  22552-3 0  9994
2 48957  97.6699  42.8193 0005025 186.5664 173.5534 15.72103294282864
HAWK-5C                 
1 52754U 22057Y   26199.96062004  .00010474  00000+0  17328-3 0  9992
2 52754  97.6628   1.7077 0002472 328.2356  31.8747 15.52407917231275
HAWK-5B                 
1 52756U 22057AA  26200.28273551  .00010321  00000+0  17076-3 0  9994
2 52756  97.6641   0.4057 0003133 312.9908  47.1081 15.52410362231329
HAWK-5A                 
1 52757U 22057AB  26199.96024250  .00010443  00000+0  17278-3 0  9996
2 52757  97.6637   0.8916 0003021 320.0263  40.0766 15.52406525231275
HAWK-6B                 
1 55324U 23011A   26199.98473906  .00002480  00000+0  11084-3 0  9999
2 55324  40.4978 166.5679 0004544 259.8721 100.1576 15.23174312192690
HAWK-6C                 
1 55326U 23011C   26200.24636893  .00002177  00000+0  98330-4 0  9992
2 55326  40.4967 161.8766 0005020 255.4049 104.6204 15.23174872192744
HAWK-6A                 
1 55327U 23011D   26200.24640668  .00002282  00000+0  10268-3 0  9998
2 55327  40.4978 163.5036 0004692 252.4511 107.5786 15.23175130192746
HAWK-7A                 
1 56191U 23054P   26200.20921184  .00002801  00000+0  10628-3 0  9993
2 56191  97.2654  86.7319 0001078 306.7519  53.3622 15.27656315181910
