{"fetched_at":"2026-07-19T17:31:34.517Z","source":"https://celestrak.org/NORAD/elements/gp.php?NAME=HAWK&FORMAT=JSON","constellation":"hawkeye-360","records":[{"OBJECT_NAME":"HAWK-A","OBJECT_ID":"2018-099H","EPOCH":"2026-07-19T02:38:09.240288","CLASSIFICATION_TYPE":"U","MEAN_MOTION":15.24994021,"ECCENTRICITY":0.0035124,"INCLINATION":97.3891,"RA_OF_ASC_NODE":251.9337,"ARG_OF_PERICENTER":170.2748,"MEAN_ANOMALY":189.9178,"EPHEMERIS_TYPE":0,"NORAD_CAT_ID":43765,"ELEMENT_SET_NO":999,"REV_AT_EPOCH":41796,"BSTAR":0.00014613867,"MEAN_MOTION_DOT":0.00003635,"MEAN_MOTION_DDOT":0},{"OBJECT_NAME":"HAWK-B","OBJECT_ID":"2018-099AN","EPOCH":"2026-07-19T02:29:50.237952","CLASSIFICATION_TYPE":"U","MEAN_MOTION":15.23140761,"ECCENTRICITY":0.00317729,"INCLINATION":97.3942,"RA_OF_ASC_NODE":251.2753,"ARG_OF_PERICENTER":188.2158,"MEAN_ANOMALY":171.8563,"EPHEMERIS_TYPE":0,"NORAD_CAT_ID":43794,"ELEMENT_SET_NO":999,"REV_AT_EPOCH":41789,"BSTAR":0.00013720567,"MEAN_MOTION_DOT":0.00003211,"MEAN_MOTION_DDOT":0},{"OBJECT_NAME":"HAWK-C","OBJECT_ID":"2018-099AT","EPOCH":"2026-07-19T03:27:51.363072","CLASSIFICATION_TYPE":"U","MEAN_MOTION":15.28527018,"ECCENTRICITY":0.00407104,"INCLINATION":97.3867,"RA_OF_ASC_NODE":253.0391,"ARG_OF_PERICENTER":169.9471,"MEAN_ANOMALY":190.2593,"EPHEMERIS_TYPE":0,"NORAD_CAT_ID":43799,"ELEMENT_SET_NO":999,"REV_AT_EPOCH":41879,"BSTAR":0.00015903361,"MEAN_MOTION_DOT":0.00004445,"MEAN_MOTION_DDOT":0},{"OBJECT_NAME":"HAWK-2C","OBJECT_ID":"2021-006CT","EPOCH":"2026-07-19T02:21:01.883808","CLASSIFICATION_TYPE":"U","MEAN_MOTION":15.35017206,"ECCENTRICITY":0.00086772,"INCLINATION":97.2259,"RA_OF_ASC_NODE":243.7759,"ARG_OF_PERICENTER":89.8938,"MEAN_ANOMALY":270.33,"EPHEMERIS_TYPE":0,"NORAD_CAT_ID":47502,"ELEMENT_SET_NO":999,"REV_AT_EPOCH":30439,"BSTAR":0.00010567161,"MEAN_MOTION_DOT":0.00003515,"MEAN_MOTION_DDOT":0},{"OBJECT_NAME":"HAWK-2A","OBJECT_ID":"2021-006CW","EPOCH":"2026-07-19T02:24:09.368352","CLASSIFICATION_TYPE":"U","MEAN_MOTION":15.35038326,"ECCENTRICITY":0.00082339,"INCLINATION":97.2301,"RA_OF_ASC_NODE":244.4744,"ARG_OF_PERICENTER":93.1893,"MEAN_ANOMALY":267.0293,"EPHEMERIS_TYPE":0,"NORAD_CAT_ID":47505,"ELEMENT_SET_NO":999,"REV_AT_EPOCH":30439,"BSTAR":0.00010919085,"MEAN_MOTION_DOT":0.00003637,"MEAN_MOTION_DDOT":0},{"OBJECT_NAME":"HAWK-2B","OBJECT_ID":"2021-006CZ","EPOCH":"2026-07-19T02:14:21.687648","CLASSIFICATION_TYPE":"U","MEAN_MOTION":15.35168289,"ECCENTRICITY":0.00087617,"INCLINATION":97.2171,"RA_OF_ASC_NODE":242.7494,"ARG_OF_PERICENTER":91.5884,"MEAN_ANOMALY":268.6363,"EPHEMERIS_TYPE":0,"NORAD_CAT_ID":47508,"ELEMENT_SET_NO":999,"REV_AT_EPOCH":30439,"BSTAR":0.00011999072,"MEAN_MOTION_DOT":0.00004022,"MEAN_MOTION_DDOT":0},{"OBJECT_NAME":"HAWK-3B","OBJECT_ID":"2021-059BE","EPOCH":"2026-07-19T02:39:12.771936","CLASSIFICATION_TYPE":"U","MEAN_MOTION":15.72105827,"ECCENTRICITY":0.00047564,"INCLINATION":97.6637,"RA_OF_ASC_NODE":39.9003,"ARG_OF_PERICENTER":185.2978,"MEAN_ANOMALY":174.8235,"EPHEMERIS_TYPE":0,"NORAD_CAT_ID":48931,"ELEMENT_SET_NO":999,"REV_AT_EPOCH":28286,"BSTAR":0.00021798726,"MEAN_MOTION_DOT":0.00028486,"MEAN_MOTION_DDOT":0},{"OBJECT_NAME":"HAWK-3C","OBJECT_ID":"2021-059BX","EPOCH":"2026-07-19T02:38:45.358080","CLASSIFICATION_TYPE":"U","MEAN_MOTION":15.72102968,"ECCENTRICITY":0.00051136,"INCLINATION":97.6752,"RA_OF_ASC_NODE":45.6403,"ARG_OF_PERICENTER":184.3804,"MEAN_ANOMALY":175.7415,"EPHEMERIS_TYPE":0,"NORAD_CAT_ID":48948,"ELEMENT_SET_NO":999,"REV_AT_EPOCH":28286,"BSTAR":0.00022968188,"MEAN_MOTION_DOT":0.00030026,"MEAN_MOTION_DDOT":0},{"OBJECT_NAME":"HAWK-3A","OBJECT_ID":"2021-059CG","EPOCH":"2026-07-19T02:38:35.723616","CLASSIFICATION_TYPE":"U","MEAN_MOTION":15.72103294,"ECCENTRICITY":0.00050254,"INCLINATION":97.6699,"RA_OF_ASC_NODE":42.8193,"ARG_OF_PERICENTER":186.5664,"MEAN_ANOMALY":173.5534,"EPHEMERIS_TYPE":0,"NORAD_CAT_ID":48957,"ELEMENT_SET_NO":999,"REV_AT_EPOCH":28286,"BSTAR":0.00022552324,"MEAN_MOTION_DOT":0.00029478,"MEAN_MOTION_DDOT":0},{"OBJECT_NAME":"HAWK-5C","OBJECT_ID":"2022-057Y","EPOCH":"2026-07-18T23:03:17.571456","CLASSIFICATION_TYPE":"U","MEAN_MOTION":15.52407917,"ECCENTRICITY":0.00024722,"INCLINATION":97.6628,"RA_OF_ASC_NODE":1.7077,"ARG_OF_PERICENTER":328.2356,"MEAN_ANOMALY":31.8747,"EPHEMERIS_TYPE":0,"NORAD_CAT_ID":52754,"ELEMENT_SET_NO":999,"REV_AT_EPOCH":23127,"BSTAR":0.00017327774,"MEAN_MOTION_DOT":0.00010474,"MEAN_MOTION_DDOT":0},{"OBJECT_NAME":"HAWK-5B","OBJECT_ID":"2022-057AA","EPOCH":"2026-07-19T06:47:08.348064","CLASSIFICATION_TYPE":"U","MEAN_MOTION":15.52410362,"ECCENTRICITY":0.00031339,"INCLINATION":97.6641,"RA_OF_ASC_NODE":0.4057,"ARG_OF_PERICENTER":312.9908,"MEAN_ANOMALY":47.1081,"EPHEMERIS_TYPE":0,"NORAD_CAT_ID":52756,"ELEMENT_SET_NO":999,"REV_AT_EPOCH":23132,"BSTAR":0.00017076466,"MEAN_MOTION_DOT":0.00010321,"MEAN_MOTION_DDOT":0},{"OBJECT_NAME":"HAWK-5A","OBJECT_ID":"2022-057AB","EPOCH":"2026-07-18T23:02:44.952000","CLASSIFICATION_TYPE":"U","MEAN_MOTION":15.52406525,"ECCENTRICITY":0.00030217,"INCLINATION":97.6637,"RA_OF_ASC_NODE":0.8916,"ARG_OF_PERICENTER":320.0263,"MEAN_ANOMALY":40.0766,"EPHEMERIS_TYPE":0,"NORAD_CAT_ID":52757,"ELEMENT_SET_NO":999,"REV_AT_EPOCH":23127,"BSTAR":0.00017278027,"MEAN_MOTION_DOT":0.00010443,"MEAN_MOTION_DDOT":0},{"OBJECT_NAME":"HAWK-6B","OBJECT_ID":"2023-011A","EPOCH":"2026-07-18T23:38:01.454784","CLASSIFICATION_TYPE":"U","MEAN_MOTION":15.23174312,"ECCENTRICITY":0.0004544,"INCLINATION":40.4978,"RA_OF_ASC_NODE":166.5679,"ARG_OF_PERICENTER":259.8721,"MEAN_ANOMALY":100.1576,"EPHEMERIS_TYPE":0,"NORAD_CAT_ID":55324,"ELEMENT_SET_NO":999,"REV_AT_EPOCH":19269,"BSTAR":0.00011084188,"MEAN_MOTION_DOT":0.0000248,"MEAN_MOTION_DDOT":0},{"OBJECT_NAME":"HAWK-6C","OBJECT_ID":"2023-011C","EPOCH":"2026-07-19T05:54:46.275552","CLASSIFICATION_TYPE":"U","MEAN_MOTION":15.23174872,"ECCENTRICITY":0.00050208,"INCLINATION":40.4967,"RA_OF_ASC_NODE":161.8766,"ARG_OF_PERICENTER":255.4049,"MEAN_ANOMALY":104.6204,"EPHEMERIS_TYPE":0,"NORAD_CAT_ID":55326,"ELEMENT_SET_NO":999,"REV_AT_EPOCH":19274,"BSTAR":0.000098330492,"MEAN_MOTION_DOT":0.00002177,"MEAN_MOTION_DDOT":0},{"OBJECT_NAME":"HAWK-6A","OBJECT_ID":"2023-011D","EPOCH":"2026-07-19T05:54:49.537152","CLASSIFICATION_TYPE":"U","MEAN_MOTION":15.2317513,"ECCENTRICITY":0.00046922,"INCLINATION":40.4978,"RA_OF_ASC_NODE":163.5036,"ARG_OF_PERICENTER":252.4511,"MEAN_ANOMALY":107.5786,"EPHEMERIS_TYPE":0,"NORAD_CAT_ID":55327,"ELEMENT_SET_NO":999,"REV_AT_EPOCH":19274,"BSTAR":0.00010267981,"MEAN_MOTION_DOT":0.00002282,"MEAN_MOTION_DDOT":0},{"OBJECT_NAME":"HAWK-7A","OBJECT_ID":"2023-054P","EPOCH":"2026-07-19T05:01:15.902976","CLASSIFICATION_TYPE":"U","MEAN_MOTION":15.27656315,"ECCENTRICITY":0.0001078,"INCLINATION":97.2654,"RA_OF_ASC_NODE":86.7319,"ARG_OF_PERICENTER":306.7519,"MEAN_ANOMALY":53.3622,"EPHEMERIS_TYPE":0,"NORAD_CAT_ID":56191,"ELEMENT_SET_NO":999,"REV_AT_EPOCH":18191,"BSTAR":0.00010627835,"MEAN_MOTION_DOT":0.00002801,"MEAN_MOTION_DDOT":0}]}
